{
  "type": "FeatureCollection",
  "features": [
    {
      "type": "Feature",
      "properties": {
        "norad_id": 39766,
        "name": "ALOS-2",
        "group": "resource",
        "lat": -45.19777993722382,
        "lon": -112.43076942502454,
        "alt_km": 638.3048098044155,
        "timestamp": "2025-12-06T16:45:42.383811+00:00",
        "meta_object_name": "ALOS-2",
        "meta_object_id": "2014-029A",
        "meta_epoch": "2025-12-06T06:00:20.856096",
        "meta_mean_motion": 14.79464234,
        "meta_eccentricity": 0.00015069,
        "meta_inclination": 97.9235,
        "meta_ra_of_asc_node": 75.1891,
        "meta_arg_of_pericenter": 105.7888,
        "meta_mean_anomaly": 254.349,
        "meta_ephemeris_type": 0,
        "meta_classification_type": "U",
        "meta_norad_cat_id": 39766,
        "meta_element_set_no": 999,
        "meta_rev_at_epoch": 62305,
        "meta_bstar": 0.00052034417,
        "meta_mean_motion_dot": 3.836e-05,
        "meta_mean_motion_ddot": 0,
        "tle_line1": "1 39766U 14029A   25340.25024139  .00003836  00000+0  52034-3 0  9993",
        "tle_line2": "2 39766  97.9235  75.1891 0001506 105.7888 254.3490 14.79464234623055"
      },
      "geometry": {
        "type": "Point",
        "coordinates": [
          -112.43076942502454,
          -45.19777993722382
        ]
      }
    },
    {
      "type": "Feature",
      "properties": {
        "norad_id": 40010,
        "name": "KAZEOSAT 2",
        "group": "resource",
        "lat": 12.042908963317425,
        "lon": -176.29702226511574,
        "alt_km": 618.5696077281564,
        "timestamp": "2025-12-06T16:45:42.383822+00:00",
        "meta_object_name": "KAZEOSAT 2",
        "meta_object_id": "2014-033A",
        "meta_epoch": "2025-12-06T07:00:18.715392",
        "meta_mean_motion": 14.85152176,
        "meta_eccentricity": 0.00073778,
        "meta_inclination": 97.5516,
        "meta_ra_of_asc_node": 184.9393,
        "meta_arg_of_pericenter": 230.4969,
        "meta_mean_anomaly": 129.5595,
        "meta_ephemeris_type": 0,
        "meta_classification_type": "U",
        "meta_norad_cat_id": 40010,
        "meta_element_set_no": 999,
        "meta_rev_at_epoch": 62032,
        "meta_bstar": 0.0001812312,
        "meta_mean_motion_dot": 1.502e-05,
        "meta_mean_motion_ddot": 0,
        "tle_line1": "1 40010U 14033A   25340.29188328  .00001502  00000+0  18123-3 0  9996",
        "tle_line2": "2 40010  97.5516 184.9393 0007377 230.4969 129.5595 14.85152176620323"
      },
      "geometry": {
        "type": "Point",
        "coordinates": [
          -176.29702226511574,
          12.042908963317425
        ]
      }
    },
    {
      "type": "Feature",
      "properties": {
        "norad_id": 40011,
        "name": "HODOYOSHI-4",
        "group": "resource",
        "lat": 49.24198860077226,
        "lon": 161.03838908115802,
        "alt_km": 617.2097578865969,
        "timestamp": "2025-12-06T16:45:42.383832+00:00",
        "meta_object_name": "HODOYOSHI-4",
        "meta_object_id": "2014-033B",
        "meta_epoch": "2025-12-06T06:51:02.037600",
        "meta_mean_motion": 14.87446398,
        "meta_eccentricity": 0.00227863,
        "meta_inclination": 97.5414,
        "meta_ra_of_asc_node": 169.4876,
        "meta_arg_of_pericenter": 222.5707,
        "meta_mean_anomaly": 137.3744,
        "meta_ephemeris_type": 0,
        "meta_classification_type": "U",
        "meta_norad_cat_id": 40011,
        "meta_element_set_no": 999,
        "meta_rev_at_epoch": 62012,
        "meta_bstar": 0.00044409163,
        "meta_mean_motion_dot": 3.988e-05,
        "meta_mean_motion_ddot": 0,
        "tle_line1": "1 40011U 14033B   25340.28544025  .00003988  00000+0  44409-3 0  9992",
        "tle_line2": "2 40011  97.5414 169.4876 0022786 222.5707 137.3744 14.87446398620123"
      },
      "geometry": {
        "type": "Point",
        "coordinates": [
          161.03838908115802,
          49.24198860077226
        ]
      }
    },
    {
      "type": "Feature",
      "properties": {
        "norad_id": 40013,
        "name": "DEIMOS-2",
        "group": "resource",
        "lat": 82.11320651778593,
        "lon": 141.9494157497216,
        "alt_km": 580.647969058642,
        "timestamp": "2025-12-06T16:45:42.383846+00:00",
        "meta_object_name": "DEIMOS-2",
        "meta_object_id": "2014-033D",
        "meta_epoch": "2025-12-06T06:43:04.838304",
        "meta_mean_motion": 14.92930455,
        "meta_eccentricity": 9.831e-05,
        "meta_inclination": 97.6072,
        "meta_ra_of_asc_node": 216.2928,
        "meta_arg_of_pericenter": 93.8706,
        "meta_mean_anomaly": 266.2626,
        "meta_ephemeris_type": 0,
        "meta_classification_type": "U",
        "meta_norad_cat_id": 40013,
        "meta_element_set_no": 999,
        "meta_rev_at_epoch": 60893,
        "meta_bstar": 0.00048812969,
        "meta_mean_motion_dot": 5.012e-05,
        "meta_mean_motion_ddot": 0,
        "tle_line1": "1 40013U 14033D   25340.27991711  .00005012  00000+0  48813-3 0  9994",
        "tle_line2": "2 40013  97.6072 216.2928 0000983  93.8706 266.2626 14.92930455608932"
      },
      "geometry": {
        "type": "Point",
        "coordinates": [
          141.9494157497216,
          82.11320651778593
        ]
      }
    },
    {
      "type": "Feature",
      "properties": {
        "norad_id": 40015,
        "name": "HODOYOSHI-3",
        "group": "resource",
        "lat": 33.226082515386395,
        "lon": 141.76569359030992,
        "alt_km": 624.9972443932911,
        "timestamp": "2025-12-06T16:45:42.383857+00:00",
        "meta_object_name": "HODOYOSHI-3",
        "meta_object_id": "2014-033F",
        "meta_epoch": "2025-12-06T06:54:22.997088",
        "meta_mean_motion": 14.8477251,
        "meta_eccentricity": 0.00318336,
        "meta_inclination": 97.6195,
        "meta_ra_of_asc_node": 146.4036,
        "meta_arg_of_pericenter": 270.036,
        "meta_mean_anomaly": 89.7207,
        "meta_ephemeris_type": 0,
        "meta_classification_type": "U",
        "meta_norad_cat_id": 40015,
        "meta_element_set_no": 999,
        "meta_rev_at_epoch": 61899,
        "meta_bstar": 0.00041152937,
        "meta_mean_motion_dot": 3.47e-05,
        "meta_mean_motion_ddot": 0,
        "tle_line1": "1 40015U 14033F   25340.28776617  .00003470  00000+0  41153-3 0  9999",
        "tle_line2": "2 40015  97.6195 146.4036 0031833 270.0360  89.7207 14.84772510618994"
      },
      "geometry": {
        "type": "Point",
        "coordinates": [
          141.76569359030992,
          33.226082515386395
        ]
      }
    },
    {
      "type": "Feature",
      "properties": {
        "norad_id": 40053,
        "name": "SPOT 7",
        "group": "resource",
        "lat": -78.32930568975029,
        "lon": 86.4440861310159,
        "alt_km": 699.253597607114,
        "timestamp": "2025-12-06T16:45:42.383867+00:00",
        "meta_object_name": "SPOT 7",
        "meta_object_id": "2014-034A",
        "meta_epoch": "2025-12-06T05:37:36.413472",
        "meta_mean_motion": 14.60721499,
        "meta_eccentricity": 0.00015267,
        "meta_inclination": 98.0916,
        "meta_ra_of_asc_node": 42.4597,
        "meta_arg_of_pericenter": 95.2032,
        "meta_mean_anomaly": 264.9343,
        "meta_ephemeris_type": 0,
        "meta_classification_type": "U",
        "meta_norad_cat_id": 40053,
        "meta_element_set_no": 999,
        "meta_rev_at_epoch": 60896,
        "meta_bstar": 0.00025311181,
        "meta_mean_motion_dot": 1.188e-05,
        "meta_mean_motion_ddot": 0,
        "tle_line1": "1 40053U 14034A   25340.23444923  .00001188  00000+0  25311-3 0  9991",
        "tle_line2": "2 40053  98.0916  42.4597 0001526  95.2032 264.9343 14.60721499608966"
      },
      "geometry": {
        "type": "Point",
        "coordinates": [
          86.4440861310159,
          -78.32930568975029
        ]
      }
    },
    {
      "type": "Feature",
      "properties": {
        "norad_id": 40072,
        "name": "SKYSAT-B",
        "group": "resource",
        "lat": -4.097227815956584,
        "lon": -75.31098910147293,
        "alt_km": 613.8255642182512,
        "timestamp": "2025-12-06T16:45:42.383877+00:00",
        "meta_object_name": "SKYSAT-B",
        "meta_object_id": "2014-037D",
        "meta_epoch": "2025-12-06T07:05:32.883936",
        "meta_mean_motion": 14.87290568,
        "meta_eccentricity": 0.00056221,
        "meta_inclination": 98.3602,
        "meta_ra_of_asc_node": 283.6614,
        "meta_arg_of_pericenter": 169.6226,
        "meta_mean_anomaly": 190.5106,
        "meta_ephemeris_type": 0,
        "meta_classification_type": "U",
        "meta_norad_cat_id": 40072,
        "meta_element_set_no": 999,
        "meta_rev_at_epoch": 61728,
        "meta_bstar": 0.00035944313,
        "meta_mean_motion_dot": 3.182e-05,
        "meta_mean_motion_ddot": 0,
        "tle_line1": "1 40072U 14037D   25340.29551949  .00003182  00000+0  35944-3 0  9997",
        "tle_line2": "2 40072  98.3602 283.6614 0005622 169.6226 190.5106 14.87290568617286"
      },
      "geometry": {
        "type": "Point",
        "coordinates": [
          -75.31098910147293,
          -4.097227815956584
        ]
      }
    }
  ]
}